[{"OBJECT_NAME":"STARLINK-35094","OBJECT_ID":"2025-191S","EPOCH":"2026-03-09T15:53:13.704288","MEAN_MOTION":15.05657783,"ECCENTRICITY":0.00023323,"INCLINATION":97.6026,"RA_OF_ASC_NODE":301.4709,"ARG_OF_PERICENTER":96.4121,"MEAN_ANOMALY":263.7371,"EPHEMERIS_TYPE":0,"CLASSIFICATION_TYPE":"U","NORAD_CAT_ID":65395,"ELEMENT_SET_NO":999,"REV_AT_EPOCH":3027,"BSTAR":0.0001593648,"MEAN_MOTION_DOT":2.24e-5,"MEAN_MOTION_DDOT":0},{"OBJECT_NAME":"COSMOS 2251 DEB","OBJECT_ID":"1993-036AL","EPOCH":"2026-03-09T15:08:47.217120","MEAN_MOTION":15.1034549,"ECCENTRICITY":0.0030621,"INCLINATION":74.0303,"RA_OF_ASC_NODE":257.926,"ARG_OF_PERICENTER":317.2462,"MEAN_ANOMALY":110.0671,"EPHEMERIS_TYPE":0,"CLASSIFICATION_TYPE":"U","NORAD_CAT_ID":33795,"ELEMENT_SET_NO":999,"REV_AT_EPOCH":91331,"BSTAR":0.001367,"MEAN_MOTION_DOT":0.00022707,"MEAN_MOTION_DDOT":0}]
